{
  "type": "FeatureCollection",
  "features": [
    {
      "type": "Feature",
      "properties": {
        "norad_id": 31275,
        "name": "FENGYUN 1C DEB",
        "group": "fengyun-1c-debris",
        "lat": 54.10558474649011,
        "lon": -128.9381115297638,
        "alt_km": 949.093890026069,
        "timestamp": "2025-12-21T07:34:34.797824+00:00",
        "meta_object_name": "FENGYUN 1C DEB",
        "meta_object_id": "1999-025BNH",
        "meta_epoch": "2025-12-19T22:26:52.247616",
        "meta_mean_motion": 14.02339979,
        "meta_eccentricity": 0.0103586,
        "meta_inclination": 98.9447,
        "meta_ra_of_asc_node": 37.1381,
        "meta_arg_of_pericenter": 332.7801,
        "meta_mean_anomaly": 26.7958,
        "meta_ephemeris_type": 0,
        "meta_classification_type": "U",
        "meta_norad_cat_id": 31275,
        "meta_element_set_no": 999,
        "meta_rev_at_epoch": 95587,
        "meta_bstar": 0.00065584,
        "meta_mean_motion_dot": 1.01e-05,
        "meta_mean_motion_ddot": 0,
        "tle_line1": "1 31275U 99025BNH 25353.93532694  .00001010  00000+0  65584-3 0  9994",
        "tle_line2": "2 31275  98.9447  37.1381 0103586 332.7801  26.7958 14.02339979955879"
      },
      "geometry": {
        "type": "Point",
        "coordinates": [
          -128.9381115297638,
          54.10558474649011
        ]
      }
    },
    {
      "type": "Feature",
      "properties": {
        "norad_id": 31279,
        "name": "FENGYUN 1C DEB",
        "group": "fengyun-1c-debris",
        "lat": -57.0107197482916,
        "lon": 16.71379096900308,
        "alt_km": 856.804527184162,
        "timestamp": "2025-12-21T07:34:34.797833+00:00",
        "meta_object_name": "FENGYUN 1C DEB",
        "meta_object_id": "1999-025BNM",
        "meta_epoch": "2025-12-20T18:22:58.019520",
        "meta_mean_motion": 14.26324568,
        "meta_eccentricity": 0.00740828,
        "meta_inclination": 98.5167,
        "meta_ra_of_asc_node": 2.8329,
        "meta_arg_of_pericenter": 154.2502,
        "meta_mean_anomaly": 206.2396,
        "meta_ephemeris_type": 0,
        "meta_classification_type": "U",
        "meta_norad_cat_id": 31279,
        "meta_element_set_no": 999,
        "meta_rev_at_epoch": 97343,
        "meta_bstar": 0.00032325206,
        "meta_mean_motion_dot": 7.57e-06,
        "meta_mean_motion_ddot": 0,
        "tle_line1": "1 31279U 99025BNM 25354.76594930  .00000757  00000+0  32325-3 0  9995",
        "tle_line2": "2 31279  98.5167   2.8329 0074082 154.2502 206.2396 14.26324568973439"
      },
      "geometry": {
        "type": "Point",
        "coordinates": [
          16.71379096900308,
          -57.0107197482916
        ]
      }
    },
    {
      "type": "Feature",
      "properties": {
        "norad_id": 31281,
        "name": "FENGYUN 1C DEB",
        "group": "fengyun-1c-debris",
        "lat": 2.2691170869816504,
        "lon": -48.30956886929899,
        "alt_km": 547.4033727450324,
        "timestamp": "2025-12-21T07:34:34.797841+00:00",
        "meta_object_name": "FENGYUN 1C DEB",
        "meta_object_id": "1999-025BNP",
        "meta_epoch": "2025-12-19T15:15:02.777184",
        "meta_mean_motion": 15.17749214,
        "meta_eccentricity": 0.0112855,
        "meta_inclination": 98.3842,
        "meta_ra_of_asc_node": 129.4957,
        "meta_arg_of_pericenter": 68.2395,
        "meta_mean_anomaly": 293.0801,
        "meta_ephemeris_type": 0,
        "meta_classification_type": "U",
        "meta_norad_cat_id": 31281,
        "meta_element_set_no": 999,
        "meta_rev_at_epoch": 99836,
        "meta_bstar": 0.00075894,
        "meta_mean_motion_dot": 0.00018041,
        "meta_mean_motion_ddot": 0,
        "tle_line1": "1 31281U 99025BNP 25353.63544881  .00018041  00000+0  75894-3 0  9996",
        "tle_line2": "2 31281  98.3842 129.4957 0112855  68.2395 293.0801 15.17749214998362"
      },
      "geometry": {
        "type": "Point",
        "coordinates": [
          -48.30956886929899,
          2.2691170869816504
        ]
      }
    },
    {
      "type": "Feature",
      "properties": {
        "norad_id": 31282,
        "name": "FENGYUN 1C DEB",
        "group": "fengyun-1c-debris",
        "lat": 64.86631925716063,
        "lon": -106.95682470944621,
        "alt_km": 828.0876700987801,
        "timestamp": "2025-12-21T07:34:34.797851+00:00",
        "meta_object_name": "FENGYUN 1C DEB",
        "meta_object_id": "1999-025BNQ",
        "meta_epoch": "2025-12-20T01:19:10.863840",
        "meta_mean_motion": 14.43481088,
        "meta_eccentricity": 0.01268449,
        "meta_inclination": 99.2174,
        "meta_ra_of_asc_node": 271.9294,
        "meta_arg_of_pericenter": 264.7671,
        "meta_mean_anomaly": 93.9032,
        "meta_ephemeris_type": 0,
        "meta_classification_type": "U",
        "meta_norad_cat_id": 31282,
        "meta_element_set_no": 999,
        "meta_rev_at_epoch": 97226,
        "meta_bstar": 0.00015412389,
        "meta_mean_motion_dot": 5.16e-06,
        "meta_mean_motion_ddot": 0,
        "tle_line1": "1 31282U 99025BNQ 25354.05498685  .00000516  00000+0  15412-3 0  9992",
        "tle_line2": "2 31282  99.2174 271.9294 0126844 264.7671  93.9032 14.43481088972265"
      },
      "geometry": {
        "type": "Point",
        "coordinates": [
          -106.95682470944621,
          64.86631925716063
        ]
      }
    },
    {
      "type": "Feature",
      "properties": {
        "norad_id": 31284,
        "name": "FENGYUN 1C DEB",
        "group": "fengyun-1c-debris",
        "lat": 23.375118029308506,
        "lon": 85.96482169015358,
        "alt_km": 798.8099228741639,
        "timestamp": "2025-12-21T07:34:34.797860+00:00",
        "meta_object_name": "FENGYUN 1C DEB",
        "meta_object_id": "1999-025BNS",
        "meta_epoch": "2025-12-18T12:28:25.995648",
        "meta_mean_motion": 13.97907737,
        "meta_eccentricity": 0.01425345,
        "meta_inclination": 99.7218,
        "meta_ra_of_asc_node": 87.2549,
        "meta_arg_of_pericenter": 43.1679,
        "meta_mean_anomaly": 318.0553,
        "meta_ephemeris_type": 0,
        "meta_classification_type": "U",
        "meta_norad_cat_id": 31284,
        "meta_element_set_no": 999,
        "meta_rev_at_epoch": 95243,
        "meta_bstar": 0.00037757635,
        "meta_mean_motion_dot": 5.35e-06,
        "meta_mean_motion_ddot": 0,
        "tle_line1": "1 31284U 99025BNS 25352.51974532  .00000535  00000+0  37758-3 0  9991",
        "tle_line2": "2 31284  99.7218  87.2549 0142534  43.1679 318.0553 13.97907737952431"
      },
      "geometry": {
        "type": "Point",
        "coordinates": [
          85.96482169015358,
          23.375118029308506
        ]
      }
    },
    {
      "type": "Feature",
      "properties": {
        "norad_id": 31285,
        "name": "FENGYUN 1C DEB",
        "group": "fengyun-1c-debris",
        "lat": 23.1006868468024,
        "lon": 159.16528794793143,
        "alt_km": 661.3361793253689,
        "timestamp": "2025-12-21T07:34:34.797887+00:00",
        "meta_object_name": "FENGYUN 1C DEB",
        "meta_object_id": "1999-025BNT",
        "meta_epoch": "2025-12-19T10:05:45.519936",
        "meta_mean_motion": 14.26045486,
        "meta_eccentricity": 0.0200057,
        "meta_inclination": 98.5199,
        "meta_ra_of_asc_node": 333.6552,
        "meta_arg_of_pericenter": 167.2649,
        "meta_mean_anomaly": 346.4457,
        "meta_ephemeris_type": 0,
        "meta_classification_type": "U",
        "meta_norad_cat_id": 31285,
        "meta_element_set_no": 999,
        "meta_rev_at_epoch": 97394,
        "meta_bstar": 0.00011266,
        "meta_mean_motion_dot": 2.86e-06,
        "meta_mean_motion_ddot": 0,
        "tle_line1": "1 31285U 99025BNT 25353.42066574  .00000286  00000+0  11266-3 0  9990",
        "tle_line2": "2 31285  98.5199 333.6552 0200057 167.2649 346.4457 14.26045486973943"
      },
      "geometry": {
        "type": "Point",
        "coordinates": [
          159.16528794793143,
          23.1006868468024
        ]
      }
    },
    {
      "type": "Feature",
      "properties": {
        "norad_id": 31286,
        "name": "FENGYUN 1C DEB",
        "group": "fengyun-1c-debris",
        "lat": -2.792821639596011,
        "lon": 67.37229511342785,
        "alt_km": 802.6073422839618,
        "timestamp": "2025-12-21T07:34:34.797896+00:00",
        "meta_object_name": "FENGYUN 1C DEB",
        "meta_object_id": "1999-025BNU",
        "meta_epoch": "2025-12-16T10:15:45.270720",
        "meta_mean_motion": 14.22801772,
        "meta_eccentricity": 0.00798767,
        "meta_inclination": 100.8592,
        "meta_ra_of_asc_node": 241.8956,
        "meta_arg_of_pericenter": 269.7947,
        "meta_mean_anomaly": 89.407,
        "meta_ephemeris_type": 0,
        "meta_classification_type": "U",
        "meta_norad_cat_id": 31286,
        "meta_element_set_no": 999,
        "meta_rev_at_epoch": 64072,
        "meta_bstar": 0.0020801755,
        "meta_mean_motion_dot": 4.763e-05,
        "meta_mean_motion_ddot": 0,
        "tle_line1": "1 31286U 99025BNU 25350.42760730  .00004763  00000+0  20802-2 0  9992",
        "tle_line2": "2 31286 100.8592 241.8956 0079876 269.7947  89.4070 14.22801772640724"
      },
      "geometry": {
        "type": "Point",
        "coordinates": [
          67.37229511342785,
          -2.792821639596011
        ]
      }
    }
  ]
}